[{"OBJECT_NAME":"NEXSAT-1","OBJECT_ID":"2024-024E","EPOCH":"2026-03-09T22:47:24.778176","MEAN_MOTION":15.32166372,"ECCENTRICITY":0.00099795,"INCLINATION":97.3124,"RA_OF_ASC_NODE":144.1918,"ARG_OF_PERICENTER":108.5709,"MEAN_ANOMALY":251.6617,"EPHEMERIS_TYPE":0,"CLASSIFICATION_TYPE":"U","NORAD_CAT_ID":58921,"ELEMENT_SET_NO":999,"REV_AT_EPOCH":11669,"BSTAR":0.00031433612,"MEAN_MOTION_DOT":9.702e-5,"MEAN_MOTION_DDOT":0},{"OBJECT_NAME":"STARLINK-35398","OBJECT_ID":"2025-232N","EPOCH":"2026-03-09T11:44:21.782400","MEAN_MOTION":15.30188307,"ECCENTRICITY":0.00015605,"INCLINATION":53.1598,"RA_OF_ASC_NODE":104.9292,"ARG_OF_PERICENTER":69.6563,"MEAN_ANOMALY":290.4605,"EPHEMERIS_TYPE":0,"CLASSIFICATION_TYPE":"U","NORAD_CAT_ID":66017,"ELEMENT_SET_NO":999,"REV_AT_EPOCH":2340,"BSTAR":0.00098897436,"MEAN_MOTION_DOT":0.00029035,"MEAN_MOTION_DDOT":0}]
